RADFXSAT (FOX-1B)       
1 43017U 17073E   26068.59518419  .00011352  00000+0  51457-3 0  9993
2 43017  97.4852 297.8938 0154575 312.4525  46.3719 15.10873817450344
STARLINK-33784          
1 63453U 25069W   26068.44555718  .00033766  00000+0  11464-2 0  9996
2 63453  53.1582 143.8705 0000792 130.5046 229.6024 15.30217807 53368
